{"type": "FeatureCollection", "features": [ {"type": "Feature", "properties": {"norad_id": 66717, "name": "FLOCK 4H-14", "group": "last-30-days", "lat": -34.05622136735169, "lon": -114.1953250480255, "alt_km": 516.9308076629859, "timestamp": "2025-12-25T07:00:32.763315+00:00", "meta": {"OBJECT_NAME": "FLOCK 4H-14", "OBJECT_ID": "2025-276BD", "EPOCH": "2025-12-24T18:59:48.592032", "MEAN_MOTION": 15.18368654, "ECCENTRICITY": 0.00017486, "INCLINATION": 97.4411, "RA_OF_ASC_NODE": 70.3806, "ARG_OF_PERICENTER": 130.6623, "MEAN_ANOMALY": 229.4763, "EPHEMERIS_TYPE": 0, "CLASSIFICATION_TYPE": "U", "NORAD_CAT_ID": 66717, "ELEMENT_SET_NO": 999, "REV_AT_EPOCH": 320, "BSTAR": 0.00030039114, "MEAN_MOTION_DOT": 6.106e-05, "MEAN_MOTION_DDOT": 0}, "tle": {"line1": "1 66717U 25276BD  25358.79153463  .00006106  00000+0  30039-3 0  9990", "line2": "2 66717  97.4411  70.3806 0001748 130.6623 229.4763 15.18368654  3205"}}, "geometry": {"type": "Point", "coordinates": [-114.1953250480255, -34.05622136735169]}}, {"type": "Feature", "properties": {"norad_id": 66718, "name": "FLOCK 4H-15", "group": "last-30-days", "lat": 75.94295667292562, "lon": -77.70155535693362, "alt_km": 509.2657743514919, "timestamp": "2025-12-25T07:00:32.763325+00:00", "meta": {"OBJECT_NAME": "FLOCK 4H-15", "OBJECT_ID": "2025-276BE", "EPOCH": "2025-12-24T19:28:50.143008", "MEAN_MOTION": 15.17123681, "ECCENTRICITY": 0.00030925, "INCLINATION": 97.4419, "RA_OF_ASC_NODE": 70.3574, "ARG_OF_PERICENTER": 257.7586, "MEAN_ANOMALY": 102.3301, "EPHEMERIS_TYPE": 0, "CLASSIFICATION_TYPE": "U", "NORAD_CAT_ID": 66718, "ELEMENT_SET_NO": 999, "REV_AT_EPOCH": 395, "BSTAR": 0.00031787625, "MEAN_MOTION_DOT": 6.238e-05, "MEAN_MOTION_DDOT": 0}, "tle": {"line1": "1 66718U 25276BE  25358.81169147  .00006238  00000+0  31788-3 0  9998", "line2": "2 66718  97.4419  70.3574 0003092 257.7586 102.3301 15.17123681  3956"}}, "geometry": {"type": "Point", "coordinates": [-77.70155535693362, 75.94295667292562]}}, {"type": "Feature", "properties": {"norad_id": 66719, "name": "FLOCK 4H-16", "group": "last-30-days", "lat": 67.8537359325385, "lon": -90.42450034896412, "alt_km": 508.174641738814, "timestamp": "2025-12-25T07:00:32.763346+00:00", "meta": {"OBJECT_NAME": "FLOCK 4H-16", "OBJECT_ID": "2025-276BF", "EPOCH": "2025-12-24T03:36:32.783616", "MEAN_MOTION": 15.17223362, "ECCENTRICITY": 0.00071256, "INCLINATION": 97.4433, "RA_OF_ASC_NODE": 69.7176, "ARG_OF_PERICENTER": 194.987, "MEAN_ANOMALY": 165.1154, "EPHEMERIS_TYPE": 0, "CLASSIFICATION_TYPE": "U", "NORAD_CAT_ID": 66719, "ELEMENT_SET_NO": 999, "REV_AT_EPOCH": 385, "BSTAR": -0.010371176, "MEAN_MOTION_DOT": -0.00200754, "MEAN_MOTION_DDOT": 0}, "tle": {"line1": "1 66719U 25276BF  25358.15037944 -.00200754  00000+0 -10371-1 0  9999", "line2": "2 66719  97.4433  69.7176 0007125 194.9870 165.1154 15.17223362  3851"}}, "geometry": {"type": "Point", "coordinates": [-90.42450034896412, 67.8537359325385]}}, {"type": "Feature", "properties": {"norad_id": 66720, "name": "FLOCK 4H-17", "group": "last-30-days", "lat": -9.825484523268877, "lon": -110.42187339002031, "alt_km": 514.258368198477, "timestamp": "2025-12-25T07:00:32.763361+00:00", "meta": {"OBJECT_NAME": "FLOCK 4H-17", "OBJECT_ID": "2025-276BG", "EPOCH": "2025-12-24T08:00:03.000384", "MEAN_MOTION": 15.18107936, "ECCENTRICITY": 0.00027451, "INCLINATION": 97.4437, "RA_OF_ASC_NODE": 69.9326, "ARG_OF_PERICENTER": 183.4874, "MEAN_ANOMALY": 170.4379, "EPHEMERIS_TYPE": 0, "CLASSIFICATION_TYPE": "U", "NORAD_CAT_ID": 66720, "ELEMENT_SET_NO": 999, "REV_AT_EPOCH": 130, "BSTAR": -0.0023881973, "MEAN_MOTION_DOT": -0.00048418, "MEAN_MOTION_DDOT": 0}, "tle": {"line1": "1 66720U 25276BG  25358.33336806 -.00048418  00000+0 -23882-2 0  9999", "line2": "2 66720  97.4437  69.9326 0002745 183.4874 170.4379 15.18107936  1301"}}, "geometry": {"type": "Point", "coordinates": [-110.42187339002031, -9.825484523268877]}}, {"type": "Feature", "properties": {"norad_id": 66721, "name": "FLOCK 4H-18", "group": "last-30-days", "lat": 73.0727444549275, "lon": -83.76549591045284, "alt_km": 509.07807099026195, "timestamp": "2025-12-25T07:00:32.763372+00:00", "meta": {"OBJECT_NAME": "FLOCK 4H-18", "OBJECT_ID": "2025-276BH", "EPOCH": "2025-12-24T19:27:59.389056", "MEAN_MOTION": 15.17159719, "ECCENTRICITY": 0.00024793, "INCLINATION": 97.4378, "RA_OF_ASC_NODE": 70.3425, "ARG_OF_PERICENTER": 273.0043, "MEAN_ANOMALY": 87.0907, "EPHEMERIS_TYPE": 0, "CLASSIFICATION_TYPE": "U", "NORAD_CAT_ID": 66721, "ELEMENT_SET_NO": 999, "REV_AT_EPOCH": 395, "BSTAR": 0.00035014955, "MEAN_MOTION_DOT": 6.886e-05, "MEAN_MOTION_DDOT": 0}, "tle": {"line1": "1 66721U 25276BH  25358.81110404  .00006886  00000+0  35015-3 0  9990", "line2": "2 66721  97.4378  70.3425 0002479 273.0043  87.0907 15.17159719  3958"}}, "geometry": {"type": "Point", "coordinates": [-83.76549591045284, 73.0727444549275]}}, {"type": "Feature", "properties": {"norad_id": 66722, "name": "FLOCK 4H-19", "group": "last-30-days", "lat": -26.847958504751798, "lon": -112.93257057160004, "alt_km": 515.9055281815808, "timestamp": "2025-12-25T07:00:32.763382+00:00", "meta": {"OBJECT_NAME": "FLOCK 4H-19", "OBJECT_ID": "2025-276BJ", "EPOCH": "2025-12-24T22:11:30.395904", "MEAN_MOTION": 15.18289306, "ECCENTRICITY": 0.00025652, "INCLINATION": 97.4384, "RA_OF_ASC_NODE": 70.4981, "ARG_OF_PERICENTER": 148.2294, "MEAN_ANOMALY": 211.9095, "EPHEMERIS_TYPE": 0, "CLASSIFICATION_TYPE": "U", "NORAD_CAT_ID": 66722, "ELEMENT_SET_NO": 999, "REV_AT_EPOCH": 326, "BSTAR": 0.00078553069, "MEAN_MOTION_DOT": 0.00016061, "MEAN_MOTION_DDOT": 0}, "tle": {"line1": "1 66722U 25276BJ  25358.92465736  .00016061  00000+0  78553-3 0  9994", "line2": "2 66722  97.4384  70.4981 0002565 148.2294 211.9095 15.18289306  3268"}}, "geometry": {"type": "Point", "coordinates": [-112.93257057160004, -26.847958504751798]}}, {"type": "Feature", "properties": {"norad_id": 66723, "name": "FLOCK 4H-20", "group": "last-30-days", "lat": -30.69644516654356, "lon": -113.5748939115886, "alt_km": 515.5539025994085, "timestamp": "2025-12-25T07:00:32.763392+00:00", "meta": {"OBJECT_NAME": "FLOCK 4H-20", "OBJECT_ID": "2025-276BK", "EPOCH": "2025-12-24T22:10:29.622144", "MEAN_MOTION": 15.18334946, "ECCENTRICITY": 0.00030255, "INCLINATION": 97.4419, "RA_OF_ASC_NODE": 70.5136, "ARG_OF_PERICENTER": 163.2501, "MEAN_ANOMALY": 196.8834, "EPHEMERIS_TYPE": 0, "CLASSIFICATION_TYPE": "U", "NORAD_CAT_ID": 66723, "ELEMENT_SET_NO": 999, "REV_AT_EPOCH": 322, "BSTAR": 0.00049449163, "MEAN_MOTION_DOT": 0.00010091, "MEAN_MOTION_DDOT": 0}, "tle": {"line1": "1 66723U 25276BK  25358.92395396  .00010091  00000+0  49449-3 0  9998", "line2": "2 66723  97.4419  70.5136 0003025 163.2501 196.8834 15.18334946  3220"}}, "geometry": {"type": "Point", "coordinates": [-113.5748939115886, -30.69644516654356]}}, {"type": "Feature", "properties": {"norad_id": 66724, "name": "FLOCK 4H-21", "group": "last-30-days", "lat": -34.07289582466167, "lon": -114.20723549617544, "alt_km": 516.0070697887522, "timestamp": "2025-12-25T07:00:32.763402+00:00", "meta": {"OBJECT_NAME": "FLOCK 4H-21", "OBJECT_ID": "2025-276BL", "EPOCH": "2025-12-24T22:09:36.748800", "MEAN_MOTION": 15.18387887, "ECCENTRICITY": 0.000283, "INCLINATION": 97.4384, "RA_OF_ASC_NODE": 70.4998, "ARG_OF_PERICENTER": 154.82, "MEAN_ANOMALY": 205.3173, "EPHEMERIS_TYPE": 0, "CLASSIFICATION_TYPE": "U", "NORAD_CAT_ID": 66724, "ELEMENT_SET_NO": 999, "REV_AT_EPOCH": 322, "BSTAR": 0.0006332692, "MEAN_MOTION_DOT": 0.00012967, "MEAN_MOTION_DDOT": 0}, "tle": {"line1": "1 66724U 25276BL  25358.92334200  .00012967  00000+0  63327-3 0  9991", "line2": "2 66724  97.4384  70.4998 0002830 154.8200 205.3173 15.18387887  3226"}}, "geometry": {"type": "Point", "coordinates": [-114.20723549617544, -34.07289582466167]}}, {"type": "Feature", "properties": {"norad_id": 66725, "name": "FLOCK 4H-22", "group": "last-30-days", "lat": 45.699601307026555, "lon": -101.48445867665315, "alt_km": 510.2705384660321, "timestamp": "2025-12-25T07:00:32.763415+00:00", "meta": {"OBJECT_NAME": "FLOCK 4H-22", "OBJECT_ID": "2025-276BM", "EPOCH": "2025-12-24T20:55:35.283360", "MEAN_MOTION": 15.17515229, "ECCENTRICITY": 0.0001509, "INCLINATION": 97.4373, "RA_OF_ASC_NODE": 70.4103, "ARG_OF_PERICENTER": 278.6483, "MEAN_ANOMALY": 81.4579, "EPHEMERIS_TYPE": 0, "CLASSIFICATION_TYPE": "U", "NORAD_CAT_ID": 66725, "ELEMENT_SET_NO": 999, "REV_AT_EPOCH": 396, "BSTAR": 0.00033136899, "MEAN_MOTION_DOT": 6.579e-05, "MEAN_MOTION_DDOT": 0}, "tle": {"line1": "1 66725U 25276BM  25358.87193615  .00006579  00000+0  33137-3 0  9997", "line2": "2 66725  97.4373  70.4103 0001509 278.6483  81.4579 15.17515229  3969"}}, "geometry": {"type": "Point", "coordinates": [-101.48445867665315, 45.699601307026555]}}, {"type": "Feature", "properties": {"norad_id": 66726, "name": "FLOCK 4H-23", "group": "last-30-days", "lat": 66.9586731127286, "lon": -91.25792892212475, "alt_km": 508.6949444021402, "timestamp": "2025-12-25T07:00:32.763428+00:00", "meta": {"OBJECT_NAME": "FLOCK 4H-23", "OBJECT_ID": "2025-276BN", "EPOCH": "2025-12-24T16:00:01.999584", "MEAN_MOTION": 15.17231684, "ECCENTRICITY": 0.00035654, "INCLINATION": 97.444, "RA_OF_ASC_NODE": 70.2245, "ARG_OF_PERICENTER": 232.7389, "MEAN_ANOMALY": 65.5049, "EPHEMERIS_TYPE": 0, "CLASSIFICATION_TYPE": "U", "NORAD_CAT_ID": 66726, "ELEMENT_SET_NO": 999, "REV_AT_EPOCH": 335, "BSTAR": 0.0027168143, "MEAN_MOTION_DOT": 0.00054338, "MEAN_MOTION_DDOT": 0}, "tle": {"line1": "1 66726U 25276BN  25358.66668981  .00054338  00000+0  27168-2 0  9990", "line2": "2 66726  97.4440  70.2245 0003565 232.7389  65.5049 15.17231684  3358"}}, "geometry": {"type": "Point", "coordinates": [-91.25792892212475, 66.9586731127286]}}]}